GLOBALSTAR M067         
1 32263U 07048A   25205.54254027 -.00000066  00000+0  23291-3 0  9990
2 32263  51.9732 286.6298 0001316  86.4525 287.2131 12.40674571814124
GLOBALSTAR M070         
1 32264U 07048B   25205.41908447 -.00000097  00000+0  38631-4 0  9998
2 32264  51.9768  15.0793 0000799 102.4119 272.5668 12.62320362818373
GLOBALSTAR M066         
1 32265U 07048C   25205.10982081 -.00000041  00000+0  45714-3 0  9999
2 32265  51.9601 279.6920 0005007  52.5682 333.4225 12.30120279819846
GLOBALSTAR M068         
1 32266U 07048D   25205.45376534 -.00000130  00000+0 -14303-3 0  9998
2 32266  51.9867 188.6554 0000869 221.0729 307.6334 12.62826214822260
GLOBALSTAR M079         
1 37188U 10054A   25205.25908483 -.00000099  00000+0  26595-4 0  9999
2 37188  52.0055  26.9328 0000982  69.0333 101.8304 12.62265523681139
GLOBALSTAR M074         
1 37189U 10054B   25205.57041449 -.00000102  00000+0  11603-4 0  9994
2 37189  52.0031  25.3039 0000986  89.9057 294.7458 12.62266715681781
GLOBALSTAR M076         
1 37190U 10054C   25205.51974556 -.00000083  00000+0  11791-3 0  9999
2 37190  52.0045  25.6311 0001102  78.8130 316.2889 12.62263940681497
GLOBALSTAR M077         
1 37191U 10054D   25205.59561257 -.00000105  00000+0 -72235-5 0  9996
2 37191  52.0095 342.2680 0000799 102.9286 337.7218 12.62268853681876
